NORAD_CAT_ID,OBJECT_NAME,OBJECT_TYPE,EPOCH,MEAN_MOTION,ECCENTRICITY,INCLINATION,RA_OF_ASC_NODE,ARG_OF_PERICENTER,MEAN_ANOMALY,BSTAR,MEAN_MOTION_DOT,MEAN_MOTION_DDOT,TLE_LINE0,TLE_LINE1,TLE_LINE2,SEMIMAJOR_AXIS,PERIOD,APOGEE,PERIGEE,DECAYED
51144.0,STARLINK-3185,PAYLOAD,2023-03-14 15:57:59,15.08850855,0.0001069,53.2144,156.9185,77.6633,282.4479,0.00020782,3.022e-05,0.0,0 STARLINK-3185,1 51144U 22005AS  23073.66526913  .00003022  00000-0  20782-3 0  9996,2 51144  53.2144 156.9185 0001069  77.6633 282.4479 15.08850855 64033,6917.847,95.437,540.452,538.973,0.0
51144.0,STARLINK-3185,PAYLOAD,2023-03-15 11:02:35,15.08863841,0.0001717,53.2145,153.3511,103.0707,257.0476,0.00036695,5.561e-05,0.0,0 STARLINK-3185,1 51144U 22005AS  23074.46013642  .00005561  00000-0  36695-3 0  9995,2 51144  53.2145 153.3511 0001717 103.0707 257.0476 15.08863841 64151,6917.808,95.436,540.86,538.485,0.0
51144.0,STARLINK-3185,PAYLOAD,2023-03-16 04:31:51,15.08835339,0.0001424,53.2141,150.0787,104.4636,255.6514,-0.00018501,-3.231e-05,0.0,0 STARLINK-3185,1 51144U 22005AS  23075.18878719 -.00003231  00000-0 -18501-3 0  9999,2 51144  53.2141 150.0787 0001424 104.4636 255.6514 15.08835339 65370,6917.895,95.438,540.745,538.775,0.0
51144.0,STARLINK-3185,PAYLOAD,2023-03-16 10:53:24,15.08828767,0.0001227,53.2142,148.8888,80.0123,280.1007,-0.00023765,-4.067e-05,0.0,0 STARLINK-3185,1 51144U 22005AS  23075.45375275 -.00004067  00000-0 -23765-3 0  9994,2 51144  53.2142 148.8888 0001227  80.0123 280.1007 15.08828767 64308,6917.915,95.438,540.629,538.931,0.0
51144.0,STARLINK-3185,PAYLOAD,2023-03-16 22:01:06,15.08823504,0.0001281,53.2143,146.8078,97.1956,262.9182,-0.00021135,-3.648e-05,0.0,0 STARLINK-3185,1 51144U 22005AS  23075.91743871 -.00003648  00000-0 -21135-3 0  9999,2 51144  53.2143 146.8078 0001281  97.1956 262.9182 15.08823504 65487,6917.931,95.439,540.682,538.91,0.0
51144.0,STARLINK-3185,PAYLOAD,2023-03-17 10:44:12,15.08831586,0.000128,53.2137,144.4304,91.6616,268.4522,-4.8818e-06,-3.66e-06,0.0,0 STARLINK-3185,1 51144U 22005AS  23076.44736171 -.00000366  00000-0 -48818-5 0  9996,2 51144  53.2137 144.4304 0001280  91.6616 268.4522 15.08831586 64451,6917.906,95.438,540.657,538.886,0.0
51144.0,STARLINK-3185,PAYLOAD,2023-03-17 21:51:54,15.0883684,0.0001395,53.2138,142.3491,100.0008,260.1142,0.00033169,4.994e-05,0.0,0 STARLINK-3185,1 51144U 22005AS  23076.91104329  .00004994  00000-0  33169-3 0  9992,2 51144  53.2138 142.3491 0001395 100.0008 260.1142 15.08836840 64526,6917.89,95.438,540.72,538.79,0.0
51144.0,STARLINK-3185,PAYLOAD,2023-03-18 13:45:44,15.08867741,0.0001453,53.2131,139.3747,97.8677,262.248,0.0009321,0.00014589,0.0,0 STARLINK-3185,1 51144U 22005AS  23077.57343665  .00014589  00000-0  93210-3 0  9997,2 51144  53.2131 139.3747 0001453  97.8677 262.2480 15.08867741 65735,6917.796,95.436,540.666,538.655,0.0
51144.0,STARLINK-3185,PAYLOAD,2023-03-19 04:04:12,15.08859735,0.0001182,53.2138,136.699,100.3665,259.746,0.0003257,4.902e-05,0.0,0 STARLINK-3185,1 51144U 22005AS  23078.16959190  .00004902  00000-0  32570-3 0  9999,2 51144  53.2138 136.6990 0001182 100.3665 259.7460 15.08859735 65821,6917.82,95.436,540.503,538.867,0.0
51144.0,STARLINK-3185,PAYLOAD,2023-03-19 10:25:45,15.08862695,0.0001196,53.2139,135.5097,98.1103,262.0024,0.00050843,7.818e-05,0.0,0 STARLINK-3185,1 51144U 22005AS  23078.43454929  .00007818  00000-0  50843-3 0  9991,2 51144  53.2139 135.5097 0001196  98.1103 262.0024 15.08862695 64757,6917.811,95.436,540.503,538.849,0.0
51144.0,STARLINK-3185,PAYLOAD,2023-03-20 03:54:59,15.0884451,0.0001306,53.2133,132.2376,94.9245,265.1896,0.0001465,2.045e-05,0.0,0 STARLINK-3185,1 51144U 22005AS  23079.16319213  .00002045  00000-0  14650-3 0  9991,2 51144  53.2133 132.2376 0001306  94.9245 265.1896 15.08844510 65971,6917.867,95.437,540.635,538.828,0.0
51144.0,STARLINK-3185,PAYLOAD,2023-03-20 10:16:32,15.0884008,0.000109,53.2143,131.049,82.0713,278.0403,0.00016827,2.391e-05,0.0,0 STARLINK-3185,1 51144U 22005AS  23079.42815421  .00002391  00000-0  16827-3 0  9994,2 51144  53.2143 131.0490 0001090  82.0713 278.0403 15.08840080 64901,6917.88,95.438,540.499,538.991,0.0
51144.0,STARLINK-3185,PAYLOAD,2023-03-20 19:48:51,15.08846557,0.0001249,53.2145,129.2646,84.3076,275.8058,0.00059668,9.223e-05,0.0,0 STARLINK-3185,1 51144U 22005AS  23079.82559372  .00009223  00000-0  59668-3 0  9999,2 51144  53.2145 129.2646 0001249  84.3076 275.8058 15.08846557 64960,6917.86,95.437,540.589,538.861,0.0
51144.0,STARLINK-3185,PAYLOAD,2023-03-21 06:56:33,15.08843425,0.0001294,53.2146,127.1831,87.4434,272.6706,0.00050179,7.708e-05,0.0,0 STARLINK-3185,1 51144U 22005AS  23080.28927612  .00007708  00000-0  50179-3 0  9991,2 51144  53.2146 127.1831 0001294  87.4434 272.6706 15.08843425 66144,6917.87,95.437,540.63,538.84,0.0
51144.0,STARLINK-3185,PAYLOAD,2023-03-21 10:07:19,15.08848663,0.0001243,53.2145,126.5884,81.6449,278.4684,0.00066439,0.00010304,0.0,0 STARLINK-3185,1 51144U 22005AS  23080.42175545  .00010304  00000-0  66439-3 0  9999,2 51144  53.2145 126.5884 0001243  81.6449 278.4684 15.08848663 65057,6917.854,95.437,540.579,538.859,0.0
51144.0,STARLINK-3185,PAYLOAD,2023-03-21 19:39:38,15.08843957,0.0001478,53.2149,124.8044,86.4348,273.6814,0.00038735,5.883e-05,0.0,0 STARLINK-3185,1 51144U 22005AS  23080.81919698  .00005883  00000-0  38735-3 0  9991,2 51144  53.2149 124.8044 0001478  86.4348 273.6814 15.08843957 65111,6917.868,95.437,540.756,538.711,0.0
51144.0,STARLINK-3185,PAYLOAD,2023-03-22 03:36:34,15.08833531,0.0001353,53.2148,123.3165,93.0909,267.0238,7.0068e-05,8.27e-06,0.0,0 STARLINK-3185,1 51144U 22005AS  23081.15039933  .00000827  00000-0  70068-4 0  9993,2 51144  53.2148 123.3165 0001353  93.0909 267.0238 15.08833531 66279,6917.9,95.438,540.701,538.829,0.0
51144.0,STARLINK-3185,PAYLOAD,2023-03-22 19:30:26,15.0882715,0.0001414,53.2148,120.3458,92.2815,267.8339,1.1838e-05,-1e-06,0.0,0 STARLINK-3185,1 51144U 22005AS  23081.81280754 -.00000100  00000-0  11838-4 0  9990,2 51144  53.2148 120.3458 0001414  92.2815 267.8339 15.08827150 66377,6917.92,95.438,540.763,538.806,0.0
51144.0,STARLINK-3185,PAYLOAD,2023-03-23 09:48:54,15.08849375,0.00014,53.2142,117.6667,87.1964,272.9188,0.00035299,5.336e-05,0.0,0 STARLINK-3185,1 51144U 22005AS  23082.40896130  .00005336  00000-0  35299-3 0  9998,2 51144  53.2142 117.6667 0001400  87.1964 272.9188 15.08849375 66467,6917.852,95.437,540.685,538.748,0.0
51144.0,STARLINK-3185,PAYLOAD,2023-03-23 19:21:12,15.08856099,0.000129,53.2135,115.8827,88.9263,271.1877,0.00051094,7.857e-05,0.0,0 STARLINK-3185,1 51144U 22005AS  23082.80639917  .00007857  00000-0  51094-3 0  9991,2 51144  53.2135 115.8827 0001290  88.9263 271.1877 15.08856099 65416,6917.831,95.437,540.589,538.804,0.0
51144.0,STARLINK-3185,PAYLOAD,2023-03-24 06:28:54,15.08895411,0.0001683,53.2145,113.8013,88.7224,271.3961,0.0020633,0.00032752,0.0,0 STARLINK-3185,1 51144U 22005AS  23083.27007281  .00032752  00000-0  20633-2 0  9992,2 51144  53.2145 113.8013 0001683  88.7224 271.3961 15.08895411 66590,6917.711,95.434,540.74,538.412,0.0
51144.0,STARLINK-3185,PAYLOAD,2023-03-24 09:39:39,15.08926409,0.0001572,53.214,113.2058,90.2547,269.8625,0.0033174,0.00053032,0.0,0 STARLINK-3185,1 51144U 22005AS  23083.40254562  .00053032  00000-0  33174-2 0  9991,2 51144  53.2140 113.2058 0001572  90.2547 269.8625 15.08926409 66615,6917.616,95.432,540.569,538.394,0.0
51144.0,STARLINK-3185,PAYLOAD,2023-03-24 19:11:59,15.0885608,0.0002055,53.2132,111.4213,71.5568,288.5648,0.00068032,0.00010561,0.0,0 STARLINK-3185,1 51144U 22005AS  23083.79999262  .00010561  00000-0  68032-3 0  9998,2 51144  53.2132 111.4213 0002055  71.5568 288.5648 15.08856080 66677,6917.831,95.437,541.118,538.275,0.0
51144.0,STARLINK-3185,PAYLOAD,2023-03-25 01:33:32,15.08818886,0.0001253,53.214,110.2328,73.121,286.992,-0.00034104,-5.708e-05,0.0,0 STARLINK-3185,1 51144U 22005AS  23084.06495487 -.00005708  00000-0 -34104-3 0  9991,2 51144  53.2140 110.2328 0001253  73.1210 286.9920 15.08818886 66713,6917.945,95.439,540.677,538.943,0.0
51144.0,STARLINK-3185,PAYLOAD,2023-03-25 19:02:47,15.0882849,0.0001615,53.2153,106.9616,67.0233,293.0929,0.00078161,0.00012169,0.0,0 STARLINK-3185,1 51144U 22005AS  23084.79360551  .00012169  00000-0  78161-3 0  9992,2 51144  53.2153 106.9616 0001615  67.0233 293.0929 15.08828490 66820,6917.916,95.438,540.898,538.663,0.0
51144.0,STARLINK-3185,PAYLOAD,2023-03-26 07:45:52,15.08853913,0.0001364,53.2147,104.5815,67.8823,292.2314,0.0013488,0.00021251,0.0,0 STARLINK-3185,1 51144U 22005AS  23085.32352335  .00021251  00000-0  13488-2 0  9995,2 51144  53.2147 104.5815 0001364  67.8823 292.2314 15.08853913 66908,6917.838,95.437,540.646,538.759,0.0
51144.0,STARLINK-3185,PAYLOAD,2023-03-27 04:25:52,15.08856327,0.0001566,53.2162,100.717,111.5487,248.5672,0.00061034,9.443e-05,0.0,0 STARLINK-3185,1 51144U 22005AS  23086.18463865  .00009443  00000-0  61034-3 0  9991,2 51144  53.2162 100.7170 0001566 111.5487 248.5672 15.08856327 67032,6917.83,95.437,540.779,538.612,0.0
51144.0,STARLINK-3185,PAYLOAD,2023-03-27 06:01:15,15.08850875,0.0001515,53.2164,100.4188,94.6003,265.5162,0.00036459,5.521e-05,0.0,0 STARLINK-3185,1 51144U 22005AS  23086.25087946  .00005521  00000-0  36459-3 0  9997,2 51144  53.2164 100.4188 0001515  94.6003 265.5162 15.08850875 65931,6917.847,95.437,540.76,538.664,0.0
51144.0,STARLINK-3185,PAYLOAD,2023-03-28 05:52:03,15.0884432,0.0001389,53.2158,95.9582,90.3918,269.7234,0.00020132,2.918e-05,0.0,0 STARLINK-3185,1 51144U 22005AS  23087.24448020  .00002918  00000-0  20132-3 0  9999,2 51144  53.2158  95.9582 0001389  90.3918 269.7234 15.08844320 67191,6917.867,95.437,540.693,538.771,0.0
51144.0,STARLINK-3185,PAYLOAD,2023-03-28 16:59:45,15.08842494,0.0001429,53.2163,93.8761,93.9532,266.1623,0.00011946,1.614e-05,0.0,0 STARLINK-3185,1 51144U 22005AS  23087.70816069  .00001614  00000-0  11946-3 0  9997,2 51144  53.2163  93.8761 0001429  93.9532 266.1623 15.08842494 66157,6917.873,95.437,540.726,538.749,0.0
